*******************************************************************************
Ephemeris / WWW_USER Mon Mar 24 07:20:17 2025 Pasadena, USA      / Horizons    
*******************************************************************************
Target body name: (2018 PM20)                     {source: JPL#2}
Center body name: Earth (399)                     {source: DE441}
Center-site name: Mauna Kea
*******************************************************************************
Start time      : A.D. 2019-Jan-19 04:15:00.0000 UT      
Stop  time      : A.D. 2019-Jan-19 16:49:00.0000 UT      
Step-size       : 1 minutes
*******************************************************************************
Target pole/equ : undefined
Target radii    : undefined                                                    
Center geodetic : 204.5278, 19.8260847, 4.21024   {E-lon(deg),Lat(deg),Alt(km)}
Center cylindric: 204.5278, 6006.35451, 2151.0229 {E-lon(deg),Dxy(km),Dz(km)}
Center pole/equ : ITRF93                          {East-longitude positive}
Center radii    : 6378.137, 6378.137, 6356.752 km {Equator_a, b, pole_c}       
Target primary  : Sun
Vis. interferer : MOON (R_eq= 1737.400) km        {source: DE441}
Rel. light bend : Sun                             {source: DE441}
Rel. lght bnd GM: 1.3271E+11 km^3/s^2                                          
Small-body perts: Yes                             {source: SB441-N16}
Atmos refraction: NO (AIRLESS)
RA format       : HMS
Time format     : CAL 
Calendar mode   : Mixed Julian/Gregorian
RTS-only print  : NO       
EOP file        : eop.250321.p250617                                           
EOP coverage    : DATA-BASED 1962-JAN-20 TO 2025-MAR-21. PREDICTS-> 2025-JUN-16
Units conversion: 1 au= 149597870.700 km, c= 299792.458 km/s, 1 day= 86400.0 s 
Table cut-offs 1: Elevation (-90.0deg=NO ),Airmass (>38.000=NO), Daylight (YES)
Table cut-offs 2: Solar elongation (  0.0,180.0=NO ),Local Hour Angle( 0.0=NO )
Table cut-offs 3: RA/DEC angular rate (     0.0=NO )                           
*******************************************************************************
Initial IAU76/J2000 heliocentric ecliptic osculating elements (au, days, deg.):
  EPOCH=  2458343.5 ! 2018-Aug-13.00 (TDB)         Residual RMS= .089003       
   EC= .5103595829140648   QR= .9783824475456468   TP= 2458372.5495769856      
   OM= 141.729241004527    W=  213.3086535448706   IN= 3.923256746335003       
  Equivalent ICRF heliocentric cartesian coordinates (au, au/d):
   X= 8.000585561647119E-01  Y=-6.125483166279821E-01  Z=-2.634816273742420E-01
  VX= 9.656077190407949E-03 VY= 1.708944028933422E-02 VZ= 5.904161592396531E-03
Asteroid physical parameters (km, seconds, rotational period in hours):        
   GM= n.a.                RAD= n.a.               ROTPER= n.a.                
   H= 26.3                 G= .150                 B-V= n.a.                   
                           ALBEDO= n.a.            STYP= n.a.                  
*******************************************************************************
 Date__(UT)__HR:MN     R.A._________(ICRF)_________DEC
******************************************************
$$SOE
 2019-Jan-19 08:21  m  05 13 42.212192 +17 42 12.50155
 2019-Jan-19 08:22  m  05 13 42.213260 +17 42 12.76732
 2019-Jan-19 08:23  m  05 13 42.214332 +17 42 13.03302
 2019-Jan-19 08:24  m  05 13 42.215408 +17 42 13.29867
 2019-Jan-19 08:25  m  05 13 42.216487 +17 42 13.56426
 2019-Jan-19 08:26  m  05 13 42.217570 +17 42 13.82979
 2019-Jan-19 08:27  m  05 13 42.218656 +17 42 14.09526
 2019-Jan-19 08:28  m  05 13 42.219747 +17 42 14.36067
 2019-Jan-19 08:29  m  05 13 42.220841 +17 42 14.62602
 2019-Jan-19 08:30  m  05 13 42.221940 +17 42 14.89131
 2019-Jan-19 08:31  m  05 13 42.223042 +17 42 15.15655
 2019-Jan-19 08:32  m  05 13 42.224149 +17 42 15.42172
 2019-Jan-19 08:33  m  05 13 42.225259 +17 42 15.68684
 2019-Jan-19 08:34  m  05 13 42.226374 +17 42 15.95189
 2019-Jan-19 08:35  m  05 13 42.227493 +17 42 16.21689
 2019-Jan-19 08:36  m  05 13 42.228617 +17 42 16.48183
 2019-Jan-19 08:37  m  05 13 42.229744 +17 42 16.74671
 2019-Jan-19 08:38  m  05 13 42.230876 +17 42 17.01153
 2019-Jan-19 08:39  m  05 13 42.232013 +17 42 17.27630
 2019-Jan-19 08:40  m  05 13 42.233154 +17 42 17.54100
 2019-Jan-19 08:41  m  05 13 42.234300 +17 42 17.80565
 2019-Jan-19 08:42  m  05 13 42.235450 +17 42 18.07024
 2019-Jan-19 08:43  m  05 13 42.236605 +17 42 18.33477
 2019-Jan-19 08:44  m  05 13 42.237765 +17 42 18.59924
 2019-Jan-19 08:45  m  05 13 42.238929 +17 42 18.86366
 2019-Jan-19 08:46  m  05 13 42.240099 +17 42 19.12801
 2019-Jan-19 08:47  m  05 13 42.241273 +17 42 19.39231
 2019-Jan-19 08:48  m  05 13 42.242452 +17 42 19.65655
 2019-Jan-19 08:49  m  05 13 42.243637 +17 42 19.92073
 2019-Jan-19 08:50  m  05 13 42.244826 +17 42 20.18486
 2019-Jan-19 08:51  m  05 13 42.246021 +17 42 20.44892
 2019-Jan-19 08:52  m  05 13 42.247221 +17 42 20.71293
 2019-Jan-19 08:53  m  05 13 42.248426 +17 42 20.97688
 2019-Jan-19 08:54  m  05 13 42.249636 +17 42 21.24078
 2019-Jan-19 08:55  m  05 13 42.250852 +17 42 21.50461
 2019-Jan-19 08:56  m  05 13 42.252073 +17 42 21.76839
 2019-Jan-19 08:57  m  05 13 42.253300 +17 42 22.03212
 2019-Jan-19 08:58  m  05 13 42.254532 +17 42 22.29578
 2019-Jan-19 08:59  m  05 13 42.255769 +17 42 22.55939
 2019-Jan-19 09:00  m  05 13 42.257013 +17 42 22.82294
 2019-Jan-19 09:01  m  05 13 42.258262 +17 42 23.08644
 2019-Jan-19 09:02  m  05 13 42.259517 +17 42 23.34987
 2019-Jan-19 09:03  m  05 13 42.260777 +17 42 23.61325
 2019-Jan-19 09:04  m  05 13 42.262044 +17 42 23.87658
 2019-Jan-19 09:05  m  05 13 42.263316 +17 42 24.13985
 2019-Jan-19 09:06  m  05 13 42.264594 +17 42 24.40306
 2019-Jan-19 09:07  m  05 13 42.265879 +17 42 24.66621
 2019-Jan-19 09:08  m  05 13 42.267169 +17 42 24.92931
 2019-Jan-19 09:09  m  05 13 42.268466 +17 42 25.19235
 2019-Jan-19 09:10  m  05 13 42.269769 +17 42 25.45534
 2019-Jan-19 09:11  m  05 13 42.271078 +17 42 25.71827
 2019-Jan-19 09:12  m  05 13 42.272393 +17 42 25.98115
 2019-Jan-19 09:13  m  05 13 42.273715 +17 42 26.24396
 2019-Jan-19 09:14  m  05 13 42.275043 +17 42 26.50673
 2019-Jan-19 09:15  m  05 13 42.276377 +17 42 26.76944
 2019-Jan-19 09:16  m  05 13 42.277718 +17 42 27.03209
 2019-Jan-19 09:17  m  05 13 42.279066 +17 42 27.29468
 2019-Jan-19 09:18  m  05 13 42.280420 +17 42 27.55723
 2019-Jan-19 09:19  m  05 13 42.281781 +17 42 27.81971
 2019-Jan-19 09:20  m  05 13 42.283149 +17 42 28.08214
 2019-Jan-19 09:21  m  05 13 42.284523 +17 42 28.34452
 2019-Jan-19 09:22  m  05 13 42.285904 +17 42 28.60684
 2019-Jan-19 09:23  m  05 13 42.287293 +17 42 28.86911
 2019-Jan-19 09:24  m  05 13 42.288688 +17 42 29.13132
 2019-Jan-19 09:25  m  05 13 42.290090 +17 42 29.39348
 2019-Jan-19 09:26  m  05 13 42.291499 +17 42 29.65558
 2019-Jan-19 09:27  m  05 13 42.292915 +17 42 29.91763
 2019-Jan-19 09:28  m  05 13 42.294338 +17 42 30.17963
 2019-Jan-19 09:29  m  05 13 42.295769 +17 42 30.44157
 2019-Jan-19 09:30  m  05 13 42.297206 +17 42 30.70346
 2019-Jan-19 09:31  m  05 13 42.298651 +17 42 30.96529
 2019-Jan-19 09:32  m  05 13 42.300104 +17 42 31.22707
 2019-Jan-19 09:33  m  05 13 42.301564 +17 42 31.48880
 2019-Jan-19 09:34  m  05 13 42.303031 +17 42 31.75047
 2019-Jan-19 09:35  m  05 13 42.304506 +17 42 32.01209
 2019-Jan-19 09:36  m  05 13 42.305988 +17 42 32.27365
 2019-Jan-19 09:37  m  05 13 42.307478 +17 42 32.53517
 2019-Jan-19 09:38  m  05 13 42.308976 +17 42 32.79663
 2019-Jan-19 09:39  m  05 13 42.310481 +17 42 33.05803
 2019-Jan-19 09:40  m  05 13 42.311994 +17 42 33.31939
 2019-Jan-19 09:41  m  05 13 42.313515 +17 42 33.58069
 2019-Jan-19 09:42  m  05 13 42.315044 +17 42 33.84194
 2019-Jan-19 09:43  m  05 13 42.316580 +17 42 34.10314
 2019-Jan-19 09:44  m  05 13 42.318125 +17 42 34.36428
 2019-Jan-19 09:45  m  05 13 42.319678 +17 42 34.62537
 2019-Jan-19 09:46  m  05 13 42.321238 +17 42 34.88642
 2019-Jan-19 09:47  m  05 13 42.322807 +17 42 35.14740
 2019-Jan-19 09:48  m  05 13 42.324384 +17 42 35.40834
 2019-Jan-19 09:49  m  05 13 42.325969 +17 42 35.66923
 2019-Jan-19 09:50  m  05 13 42.327563 +17 42 35.93006
 2019-Jan-19 09:51  m  05 13 42.329165 +17 42 36.19085
 2019-Jan-19 09:52  m  05 13 42.330775 +17 42 36.45158
 2019-Jan-19 09:53  m  05 13 42.332393 +17 42 36.71226
 2019-Jan-19 09:54  m  05 13 42.334020 +17 42 36.97289
 2019-Jan-19 09:55  m  05 13 42.335656 +17 42 37.23347
 2019-Jan-19 09:56  m  05 13 42.337300 +17 42 37.49400
 2019-Jan-19 09:57  m  05 13 42.338953 +17 42 37.75447
 2019-Jan-19 09:58  m  05 13 42.340614 +17 42 38.01490
 2019-Jan-19 09:59  m  05 13 42.342284 +17 42 38.27528
 2019-Jan-19 10:00  m  05 13 42.343963 +17 42 38.53561
 2019-Jan-19 10:01  m  05 13 42.345651 +17 42 38.79589
 2019-Jan-19 10:02  m  05 13 42.347347 +17 42 39.05612
 2019-Jan-19 10:03  m  05 13 42.349053 +17 42 39.31629
 2019-Jan-19 10:04  m  05 13 42.350767 +17 42 39.57642
 2019-Jan-19 10:05  m  05 13 42.352490 +17 42 39.83650
 2019-Jan-19 10:06  m  05 13 42.354222 +17 42 40.09653
 2019-Jan-19 10:07  m  05 13 42.355964 +17 42 40.35652
 2019-Jan-19 10:08  m  05 13 42.357714 +17 42 40.61645
 2019-Jan-19 10:09  m  05 13 42.359474 +17 42 40.87633
 2019-Jan-19 10:10  m  05 13 42.361243 +17 42 41.13617
 2019-Jan-19 10:11  m  05 13 42.363021 +17 42 41.39596
 2019-Jan-19 10:12  m  05 13 42.364809 +17 42 41.65570
 2019-Jan-19 10:13  m  05 13 42.366606 +17 42 41.91539
 2019-Jan-19 10:14  m  05 13 42.368412 +17 42 42.17503
 2019-Jan-19 10:15  m  05 13 42.370228 +17 42 42.43463
 2019-Jan-19 10:16  m  05 13 42.372053 +17 42 42.69418
 2019-Jan-19 10:17  m  05 13 42.373888 +17 42 42.95368
 2019-Jan-19 10:18  m  05 13 42.375733 +17 42 43.21313
 2019-Jan-19 10:19  m  05 13 42.377587 +17 42 43.47254
 2019-Jan-19 10:20  m  05 13 42.379450 +17 42 43.73190
 2019-Jan-19 10:21  m  05 13 42.381324 +17 42 43.99121
 2019-Jan-19 10:22  m  05 13 42.383207 +17 42 44.25047
 2019-Jan-19 10:23  m  05 13 42.385100 +17 42 44.50969
